NORAD_CAT_ID,OBJECT_NAME,OBJECT_TYPE,EPOCH,MEAN_MOTION,ECCENTRICITY,INCLINATION,RA_OF_ASC_NODE,ARG_OF_PERICENTER,MEAN_ANOMALY,BSTAR,MEAN_MOTION_DOT,MEAN_MOTION_DDOT,TLE_LINE0,TLE_LINE1,TLE_LINE2,SEMIMAJOR_AXIS,PERIOD,APOGEE,PERIGEE,DECAYED
51117.0,STARLINK-3391,PAYLOAD,2022-06-23 01:30:30,15.08841619,0.0001615,53.2156,254.7577,52.1595,307.9543,7.9293e-05,9.74e-06,0.0,0 STARLINK-3391,1 51117U 22005P   22174.06284868  .00000974  00000-0  79293-4 0  9996,2 51117  53.2156 254.7577 0001615  52.1595 307.9543 15.08841619 25333,6917.875,95.437,540.8580000000002,538.623,0.0
51117.0,STARLINK-3391,PAYLOAD,2022-06-23 09:27:25,15.08845591,0.0001652,53.2157,253.2709,52.7288,307.3855,0.0001237,1.681e-05,0.0,0 STARLINK-3391,1 51117U 22005P   22174.39404449  .00001681  00000-0  12370-3 0  9999,2 51117  53.2157 253.2709 0001652  52.7288 307.3855 15.08845591 24276,6917.863,95.437,540.871,538.585,0.0
51117.0,STARLINK-3391,PAYLOAD,2022-06-23 12:38:12,15.08836197,0.0001452,53.2157,252.6762,56.7833,303.3298,3.8179e-05,3.2e-06,0.0,0 STARLINK-3391,1 51117U 22005P   22174.52653205  .00000320  00000-0  38179-4 0  9995,2 51117  53.2157 252.6762 0001452  56.7833 303.3298 15.08836197 25401,6917.892,95.438,540.761,538.753,0.0
51117.0,STARLINK-3391,PAYLOAD,2022-06-24 04:32:03,15.08854201,0.000167,53.2157,249.7024,48.7825,311.3311,-0.0002663,-4.525e-05,0.0,0 STARLINK-3391,1 51117U 22005P   22175.18892755 -.00004525  00000-0 -26630-3 0  9994,2 51117  53.2157 249.7024 0001670  48.7825 311.3311 15.08854201 25505,6917.837,95.437,540.857,538.547,0.0
51117.0,STARLINK-3391,PAYLOAD,2022-06-24 12:29:00,15.08819869,0.0001657,53.2161,248.2149,50.3212,309.7926,3.2223e-05,2.25e-06,0.0,0 STARLINK-3391,1 51117U 22005P   22175.52014585  .00000225  00000-0  32223-4 0  9996,2 51117  53.2161 248.2149 0001657  50.3212 309.7926 15.08819869 25555,6917.941999999999,95.439,540.953,538.661,0.0
51117.0,STARLINK-3391,PAYLOAD,2022-06-25 10:44:24,15.08830435,0.0001606,53.2161,244.0517,53.3867,306.7273,-8.8849e-06,-4.29e-06,0.0,0 STARLINK-3391,1 51117U 22005P   22176.44750610 -.00000429  00000-0 -88849-5 0  9998,2 51117  53.2161 244.0517 0001606  53.3867 306.7273 15.08830435 25690,6917.91,95.438,540.886,538.664,0.0
51117.0,STARLINK-3391,PAYLOAD,2022-06-26 10:35:11,15.08836205,0.0001681,53.2155,239.5911,56.6115,303.5038,0.00013232,1.818e-05,0.0,0 STARLINK-3391,1 51117U 22005P   22177.44110248  .00001818  00000-0  13232-3 0  9999,2 51117  53.2155 239.5911 0001681  56.6115 303.5038 15.08836205 25847,6917.892,95.438,540.92,538.594,0.0
51117.0,STARLINK-3391,PAYLOAD,2022-06-26 21:42:53,15.08839983,0.0001753,53.2151,237.5104,55.0568,305.0588,0.00017138,2.44e-05,0.0,0 STARLINK-3391,1 51117U 22005P   22177.90478010  .00002440  00000-0  17138-3 0  9995,2 51117  53.2151 237.5104 0001753  55.0568 305.0588 15.08839983 24808,6917.88,95.438,540.9580000000002,538.533,0.0
51117.0,STARLINK-3391,PAYLOAD,2022-06-27 02:29:02,15.08845167,0.0001746,53.2152,236.6182,54.2878,305.8277,0.00016388,2.321e-05,0.0,0 STARLINK-3391,1 51117U 22005P   22178.10349719  .00002321  00000-0  16388-3 0  9995,2 51117  53.2152 236.6182 0001746  54.2878 305.8277 15.08845167 25942,6917.865,95.437,540.937,538.5219999999998,0.0
51117.0,STARLINK-3391,PAYLOAD,2022-06-27 10:25:57,15.08848697,0.0001740999999999,53.2151,235.1312,55.3283,304.7873,0.0001868,2.687e-05,0.0,0 STARLINK-3391,1 51117U 22005P   22178.43469393  .00002687  00000-0  18680-3 0  9994,2 51117  53.2151 235.1312 0001741  55.3283 304.7873 15.08848697 24880,6917.854,95.437,540.923,538.514,0.0
51117.0,STARLINK-3391,PAYLOAD,2022-06-28 02:19:49,15.08836875,0.000174,53.215,232.157,58.1383,301.9778,-1.7753e-05,-5.71e-06,0.0,0 STARLINK-3391,1 51117U 22005P   22179.09710629 -.00000571  00000-0 -17753-4 0  9991,2 51117  53.2150 232.1570 0001740  58.1383 301.9778 15.08836875 26096,6917.89,95.438,540.9590000000002,538.5509999999998,0.0
51117.0,STARLINK-3391,PAYLOAD,2022-06-28 13:27:31,15.0884291,0.0001821,53.215,230.0762,55.5817,304.5347,1.6627000000000002e-05,-2.3e-07,0.0,0 STARLINK-3391,1 51117U 22005P   22179.56078089 -.00000023  00000-0  16627-4 0  9990,2 51117  53.2150 230.0762 0001821  55.5817 304.5347 15.08842910 25052,6917.871,95.437,540.996,538.477,0.0
51117.0,STARLINK-3391,PAYLOAD,2022-06-29 10:07:33,15.08833388,0.0001874,53.2151,226.2099,56.3764,303.7406,-0.00011901,-2.181e-05,0.0,0 STARLINK-3391,1 51117U 22005P   22180.42190985 -.00002181  00000-0 -11901-3 0  9994,2 51117  53.2151 226.2099 0001874  56.3764 303.7406 15.08833388 25181,6917.901,95.438,541.062,538.469,0.0
51117.0,STARLINK-3391,PAYLOAD,2022-06-30 13:09:06,15.08828272,0.0001915,53.215,221.1551,55.8376,304.2798,-3.4111e-05,-8.31e-06,0.0,0 STARLINK-3391,1 51117U 22005P   22181.54799688 -.00000831  00000-0 -34111-4 0  9992,2 51117  53.2150 221.1551 0001915  55.8376 304.2798 15.08828272 26464,6917.916,95.438,541.106,538.456,0.0
51117.0,STARLINK-3391,PAYLOAD,2022-06-30 19:30:39,15.08829881,0.0001899,53.2151,219.9654,54.4638,305.6531,-3.6051e-05,-8.62e-06,0.0,0 STARLINK-3391,1 51117U 22005P   22181.81295756 -.00000862  00000-0 -36051-4 0  9998,2 51117  53.2151 219.9654 0001899  54.4638 305.6531 15.08829881 25399,6917.911,95.438,541.09,538.4630000000002,0.0
51117.0,STARLINK-3391,PAYLOAD,2022-07-01 11:24:31,15.08826045,0.0001883,53.2158,216.9924,58.6072,301.5104,6.3636e-05,7.24e-06,0.0,0 STARLINK-3391,1 51117U 22005P   22182.47536122  .00000724  00000-0  63636-4 0  9990,2 51117  53.2158 216.9924 0001883  58.6072 301.5104 15.08826045 25495,6917.9230000000025,95.438,541.091,538.485,0.0
51117.0,STARLINK-3391,PAYLOAD,2022-07-02 03:18:22,15.0883032,0.0001709,53.2165,214.0182,72.1048,288.013,5.1704e-05,5.35e-06,0.0,0 STARLINK-3391,1 51117U 22005P   22183.13776350  .00000535  00000-0  51704-4 0  9996,2 51117  53.2165 214.0182 0001709  72.1048 288.0130 15.08830320 26703,6917.91,95.438,540.957,538.5930000000002,0.0
51117.0,STARLINK-3391,PAYLOAD,2022-07-02 11:15:18,15.08831729,0.0001942,53.2166,212.5315,55.9859,304.1317,7.0495e-05,8.34e-06,0.0,0 STARLINK-3391,1 51117U 22005P   22183.46896479  .00000834  00000-0  70495-4 0  9997,2 51117  53.2166 212.5315 0001942  55.9859 304.1317 15.08831729 25646,6917.906,95.438,541.114,538.427,0.0
51117.0,STARLINK-3391,PAYLOAD,2022-07-03 11:06:05,15.08837986,0.0001955,53.2166,208.0711,57.1948,302.9233,7.2389e-05,8.64e-06,0.0,0 STARLINK-3391,1 51117U 22005P   22184.46256406  .00000864  00000-0  72389-4 0  9995,2 51117  53.2166 208.0711 0001955  57.1948 302.9233 15.08837986 26907,6917.887,95.438,541.104,538.399,0.0
51117.0,STARLINK-3391,PAYLOAD,2022-07-03 20:38:24,15.08839896,0.0001965,53.2166,206.2869,57.2146,302.9036,7.2492e-05,8.66e-06,0.0,0 STARLINK-3391,1 51117U 22005P   22184.86000320  .00000866  00000-0  72492-4 0  9998,2 51117  53.2166 206.2869 0001965  57.2146 302.9036 15.08839896 25859,6917.880999999999,95.438,541.105,538.386,0.0
51117.0,STARLINK-3391,PAYLOAD,2022-07-04 10:56:52,15.08842827,0.000199,53.2165,203.6106,57.7847,302.3338,8.1215e-05,1.005e-05,0.0,0 STARLINK-3391,1 51117U 22005P   22185.45616122  .00001005  00000-0  81215-4 0  9996,2 51117  53.2165 203.6106 0001990  57.7847 302.3338 15.08842827 25941,6917.871999999999,95.437,541.113,538.36,0.0
51117.0,STARLINK-3391,PAYLOAD,2022-07-05 07:36:52,15.08847641,0.0002019,53.2165,199.745,58.0786,302.0402,7.377100000000001e-05,8.86e-06,0.0,0 STARLINK-3391,1 51117U 22005P   22186.31727599  .00000886  00000-0  73771-4 0  9997,2 51117  53.2165 199.7450 0002019  58.0786 302.0402 15.08847641 26070,6917.857,95.437,541.119,538.325,0.0
51117.0,STARLINK-3391,PAYLOAD,2022-07-06 07:27:39,15.08851206,0.0002058,53.2164,195.2845,58.6738,301.4455,8.1139e-05,1.004e-05,0.0,0 STARLINK-3391,1 51117U 22005P   22187.31086818  .00001004  00000-0  81139-4 0  9990,2 51117  53.2164 195.2845 0002058  58.6738 301.4455 15.08851206 27337,6917.846,95.437,541.135,538.2869999999998,0.0
51117.0,STARLINK-3391,PAYLOAD,2022-07-06 16:59:58,15.08840668,0.0002078,53.2164,193.5004,58.4662,301.6532,-1.4821e-05,-5.24e-06,0.0,0 STARLINK-3391,1 51117U 22005P   22187.70831652 -.00000524  00000-0 -14821-4 0  9999,2 51117  53.2164 193.5004 0002078  58.4662 301.6532 15.08840668 26282,6917.878000000002,95.438,541.181,538.306,0.0
51117.0,STARLINK-3391,PAYLOAD,2022-07-07 07:18:26,15.08838367,0.0002039,53.2163,190.8243,59.3112,300.8081,-4.6582e-05,-1.029e-05,0.0,0 STARLINK-3391,1 51117U 22005P   22188.30447802 -.00001029  00000-0 -46582-4 0  9996,2 51117  53.2163 190.8243 0002039  59.3112 300.8081 15.08838367 26376,6917.885,95.438,541.161,538.34,0.0
51117.0,STARLINK-3391,PAYLOAD,2022-07-07 20:01:31,15.08839829,0.0002071,53.2164,188.4453,59.0292,301.0903,-4.056e-05,-9.34e-06,0.0,0 STARLINK-3391,1 51117U 22005P   22188.83439751 -.00000934  00000-0 -40560-4 0  9992,2 51117  53.2164 188.4453 0002071  59.0292 301.0903 15.08839829 26454,6917.880999999999,95.438,541.179,538.313,0.0
51117.0,STARLINK-3391,PAYLOAD,2022-07-08 03:58:27,15.088410199999998,0.0002084,53.2164,186.9584,59.6846,300.4352,-2.659e-05,-7.11e-06,0.0,0 STARLINK-3391,1 51117U 22005P   22189.16559604 -.00000711  00000-0 -26590-4 0  9999,2 51117  53.2164 186.9584 0002084  59.6846 300.4352 15.08841020 27613,6917.877,95.437,541.184,538.3009999999998,0.0
51117.0,STARLINK-3391,PAYLOAD,2022-07-08 07:09:13,15.08841637,0.0002082,53.2164,186.3639,59.4001,300.7196,-2.2592e-05,-6.48e-06,0.0,0 STARLINK-3391,1 51117U 22005P   22189.29807544 -.00000648  00000-0 -22592-4 0  9999,2 51117  53.2164 186.3639 0002082  59.4001 300.7196 15.08841637 26529,6917.875,95.437,541.181,538.3,0.0
51117.0,STARLINK-3391,PAYLOAD,2022-07-08 19:52:18,15.08838435,0.000208,53.2167,183.9849,59.0984,301.0213,9.3882e-05,1.206e-05,0.0,0 STARLINK-3391,1 51117U 22005P   22189.82799419  .00001206  00000-0  93882-4 0  9998,2 51117  53.2167 183.9849 0002080  59.0984 301.0213 15.08838435 26607,6917.885,95.438,541.189,538.311,0.0
